[{"OBJECT_NAME":"HELIOS 1B","OBJECT_ID":"1999-064A","EPOCH":"2026-03-28T14:42:53.980992","MEAN_MOTION":14.87769378,"ECCENTRICITY":0.00018366,"INCLINATION":98.1673,"RA_OF_ASC_NODE":350.4109,"ARG_OF_PERICENTER":48.8254,"MEAN_ANOMALY":311.3119,"EPHEMERIS_TYPE":0,"CLASSIFICATION_TYPE":"U","NORAD_CAT_ID":25977,"ELEMENT_SET_NO":999,"REV_AT_EPOCH":68807,"BSTAR":0.0001985794,"MEAN_MOTION_DOT":1.754e-5,"MEAN_MOTION_DDOT":0},{"OBJECT_NAME":"TERRA","OBJECT_ID":"1999-068A","EPOCH":"2026-03-28T15:16:30.863712","MEAN_MOTION":14.61034278,"ECCENTRICITY":0.0003569,"INCLINATION":97.9553,"RA_OF_ASC_NODE":140.3437,"ARG_OF_PERICENTER":111.9893,"MEAN_ANOMALY":49.4323,"EPHEMERIS_TYPE":0,"CLASSIFICATION_TYPE":"U","NORAD_CAT_ID":25994,"ELEMENT_SET_NO":999,"REV_AT_EPOCH":39784,"BSTAR":9.7815553e-5,"MEAN_MOTION_DOT":4.36e-6,"MEAN_MOTION_DDOT":0},{"OBJECT_NAME":"SL-16 R/B","OBJECT_ID":"2000-006B","EPOCH":"2026-03-28T07:28:06.087648","MEAN_MOTION":14.15826846,"ECCENTRICITY":0.00157594,"INCLINATION":71.0019,"RA_OF_ASC_NODE":58.6787,"ARG_OF_PERICENTER":160.69,"MEAN_ANOMALY":199.4824,"EPHEMERIS_TYPE":0,"CLASSIFICATION_TYPE":"U","NORAD_CAT_ID":26070,"ELEMENT_SET_NO":999,"REV_AT_EPOCH":35119,"BSTAR":0.00019087058,"MEAN_MOTION_DOT":3.28e-6,"MEAN_MOTION_DDOT":0},{"OBJECT_NAME":"TITAN 4B R/B","OBJECT_ID":"2000-047B","EPOCH":"2026-03-28T13:53:40.464384","MEAN_MOTION":15.09734736,"ECCENTRICITY":0.00398398,"INCLINATION":67.9914,"RA_OF_ASC_NODE":347.3894,"ARG_OF_PERICENTER":13.2851,"MEAN_ANOMALY":346.9337,"EPHEMERIS_TYPE":0,"CLASSIFICATION_TYPE":"U","NORAD_CAT_ID":26474,"ELEMENT_SET_NO":999,"REV_AT_EPOCH":39576,"BSTAR":0.00026123713,"MEAN_MOTION_DOT":4.167e-5,"MEAN_MOTION_DDOT":0},{"OBJECT_NAME":"ENVISAT","OBJECT_ID":"2002-009A","EPOCH":"2026-03-28T14:46:24.695904","MEAN_MOTION":14.39043347,"ECCENTRICITY":0.0001207,"INCLINATION":98.3758,"RA_OF_ASC_NODE":40.7659,"ARG_OF_PERICENTER":81.4044,"MEAN_ANOMALY":91.4402,"EPHEMERIS_TYPE":0,"CLASSIFICATION_TYPE":"U","NORAD_CAT_ID":27386,"ELEMENT_SET_NO":999,"REV_AT_EPOCH":26189,"BSTAR":5.3323774e-5,"MEAN_MOTION_DOT":1.22e-6,"MEAN_MOTION_DDOT":0},{"OBJECT_NAME":"IDEFIX & ARIANE 42P R/B","OBJECT_ID":"2002-021B","EPOCH":"2026-03-28T14:00:51.380928","MEAN_MOTION":14.31038615,"ECCENTRICITY":0.00125787,"INCLINATION":98.5891,"RA_OF_ASC_NODE":25.9668,"ARG_OF_PERICENTER":128.2136,"MEAN_ANOMALY":232.0181,"EPHEMERIS_TYPE":0,"CLASSIFICATION_TYPE":"U","NORAD_CAT_ID":27422,"ELEMENT_SET_NO":999,"REV_AT_EPOCH":24672,"BSTAR":0.00012472889,"MEAN_MOTION_DOT":2.85e-6,"MEAN_MOTION_DDOT":0},{"OBJECT_NAME":"AQUA","OBJECT_ID":"2002-022A","EPOCH":"2026-03-28T14:05:14.237376","MEAN_MOTION":14.62019053,"ECCENTRICITY":0.00011253,"INCLINATION":98.4205,"RA_OF_ASC_NODE":55.3007,"ARG_OF_PERICENTER":117.9874,"MEAN_ANOMALY":11.4525,"EPHEMERIS_TYPE":0,"CLASSIFICATION_TYPE":"U","NORAD_CAT_ID":27424,"ELEMENT_SET_NO":999,"REV_AT_EPOCH":27149,"BSTAR":0.00021489412,"MEAN_MOTION_DOT":1.029e-5,"MEAN_MOTION_DDOT":0},{"OBJECT_NAME":"CZ-4B R/B","OBJECT_ID":"2002-024C","EPOCH":"2026-03-28T14:46:11.036064","MEAN_MOTION":14.14550972,"ECCENTRICITY":0.00495225,"INCLINATION":98.8799,"RA_OF_ASC_NODE":140.9234,"ARG_OF_PERICENTER":330.318,"MEAN_ANOMALY":144.846,"EPHEMERIS_TYPE":0,"CLASSIFICATION_TYPE":"U","NORAD_CAT_ID":27432,"ELEMENT_SET_NO":999,"REV_AT_EPOCH":23191,"BSTAR":4.253638e-5,"MEAN_MOTION_DOT":3.8e-7,"MEAN_MOTION_DDOT":0},{"OBJECT_NAME":"MIDORI II (ADEOS-II)","OBJECT_ID":"2002-056A","EPOCH":"2026-03-28T11:52:37.744320","MEAN_MOTION":14.29298936,"ECCENTRICITY":7.586e-5,"INCLINATION":98.78,"RA_OF_ASC_NODE":46.1062,"ARG_OF_PERICENTER":19.4363,"MEAN_ANOMALY":340.6847,"EPHEMERIS_TYPE":0,"CLASSIFICATION_TYPE":"U","NORAD_CAT_ID":27597,"ELEMENT_SET_NO":999,"REV_AT_EPOCH":21298,"BSTAR":0.00014563663,"MEAN_MOTION_DOT":3.25e-6,"MEAN_MOTION_DDOT":0},{"OBJECT_NAME":"H-2A R/B","OBJECT_ID":"2002-056E","EPOCH":"2026-03-28T15:23:03.740064","MEAN_MOTION":14.33773063,"ECCENTRICITY":0.00713571,"INCLINATION":98.3234,"RA_OF_ASC_NODE":47.2888,"ARG_OF_PERICENTER":104.8398,"MEAN_ANOMALY":67.2412,"EPHEMERIS_TYPE":0,"CLASSIFICATION_TYPE":"U","NORAD_CAT_ID":27601,"ELEMENT_SET_NO":999,"REV_AT_EPOCH":21682,"BSTAR":0.0001218922,"MEAN_MOTION_DOT":3.07e-6,"MEAN_MOTION_DDOT":0},{"OBJECT_NAME":"CZ-4B R/B","OBJECT_ID":"2003-049C","EPOCH":"2026-03-28T13:40:19.492320","MEAN_MOTION":14.55036759,"ECCENTRICITY":0.00482633,"INCLINATION":98.6892,"RA_OF_ASC_NODE":83.2177,"ARG_OF_PERICENTER":172.7332,"MEAN_ANOMALY":187.4574,"EPHEMERIS_TYPE":0,"CLASSIFICATION_TYPE":"U","NORAD_CAT_ID":28059,"ELEMENT_SET_NO":999,"REV_AT_EPOCH":18934,"BSTAR":9.7370132e-5,"MEAN_MOTION_DOT":3.75e-6,"MEAN_MOTION_DDOT":0},{"OBJECT_NAME":"CZ-2C R/B","OBJECT_ID":"2004-012C","EPOCH":"2026-03-28T03:27:59.050080","MEAN_MOTION":15.66741264,"ECCENTRICITY":0.00132932,"INCLINATION":97.7185,"RA_OF_ASC_NODE":154.2126,"ARG_OF_PERICENTER":235.478,"MEAN_ANOMALY":124.5225,"EPHEMERIS_TYPE":0,"CLASSIFICATION_TYPE":"U","NORAD_CAT_ID":28222,"ELEMENT_SET_NO":999,"REV_AT_EPOCH":20716,"BSTAR":0.00060221314,"MEAN_MOTION_DOT":0.0006383,"MEAN_MOTION_DDOT":0},{"OBJECT_NAME":"SL-16 R/B","OBJECT_ID":"2004-021B","EPOCH":"2026-03-28T13:11:11.558112","MEAN_MOTION":14.14594754,"ECCENTRICITY":0.00049555,"INCLINATION":71.0008,"RA_OF_ASC_NODE":192.9144,"ARG_OF_PERICENTER":346.6717,"MEAN_ANOMALY":13.4274,"EPHEMERIS_TYPE":0,"CLASSIFICATION_TYPE":"U","NORAD_CAT_ID":28353,"ELEMENT_SET_NO":999,"REV_AT_EPOCH":12550,"BSTAR":0.00011854155,"MEAN_MOTION_DOT":1.8e-6,"MEAN_MOTION_DDOT":0},{"OBJECT_NAME":"CZ-4B R/B","OBJECT_ID":"2004-035C","EPOCH":"2026-03-28T13:23:37.800960","MEAN_MOTION":15.29385346,"ECCENTRICITY":0.00300102,"INCLINATION":97.3474,"RA_OF_ASC_NODE":121.5757,"ARG_OF_PERICENTER":260.9201,"MEAN_ANOMALY":98.8644,"EPHEMERIS_TYPE":0,"CLASSIFICATION_TYPE":"U","NORAD_CAT_ID":28415,"ELEMENT_SET_NO":999,"REV_AT_EPOCH":18279,"BSTAR":0.00031888522,"MEAN_MOTION_DOT":9.135e-5,"MEAN_MOTION_DDOT":0},{"OBJECT_NAME":"CZ-2C R/B","OBJECT_ID":"2004-046B","EPOCH":"2026-03-28T08:20:15.909504","MEAN_MOTION":14.26998585,"ECCENTRICITY":0.01405934,"INCLINATION":98.1977,"RA_OF_ASC_NODE":1.169,"ARG_OF_PERICENTER":99.6174,"MEAN_ANOMALY":262.0924,"EPHEMERIS_TYPE":0,"CLASSIFICATION_TYPE":"U","NORAD_CAT_ID":28480,"ELEMENT_SET_NO":999,"REV_AT_EPOCH":11116,"BSTAR":6.5830249e-5,"MEAN_MOTION_DOT":1.38e-6,"MEAN_MOTION_DDOT":0},{"OBJECT_NAME":"ARIANE 5 R/B","OBJECT_ID":"2004-049H","EPOCH":"2026-03-28T10:16:37.953120","MEAN_MOTION":14.85299028,"ECCENTRICITY":0.00829315,"INCLINATION":98.2656,"RA_OF_ASC_NODE":256.5905,"ARG_OF_PERICENTER":290.6503,"MEAN_ANOMALY":68.5833,"EPHEMERIS_TYPE":0,"CLASSIFICATION_TYPE":"U","NORAD_CAT_ID":28499,"ELEMENT_SET_NO":999,"REV_AT_EPOCH":14857,"BSTAR":0.00010456001,"MEAN_MOTION_DOT":8.89e-6,"MEAN_MOTION_DDOT":0},{"OBJECT_NAME":"CZ-2D R/B","OBJECT_ID":"2005-024B","EPOCH":"2026-03-28T11:48:18.299808","MEAN_MOTION":15.61848764,"ECCENTRICITY":0.00024376,"INCLINATION":97.3581,"RA_OF_ASC_NODE":103.3508,"ARG_OF_PERICENTER":340.8411,"MEAN_ANOMALY":19.2754,"EPHEMERIS_TYPE":0,"CLASSIFICATION_TYPE":"U","NORAD_CAT_ID":28738,"ELEMENT_SET_NO":999,"REV_AT_EPOCH":14271,"BSTAR":0.00057362101,"MEAN_MOTION_DOT":0.0004984,"MEAN_MOTION_DDOT":0}]
